NORAD_CAT_ID,OBJECT_NAME,OBJECT_TYPE,EPOCH,MEAN_MOTION,ECCENTRICITY,INCLINATION,RA_OF_ASC_NODE,ARG_OF_PERICENTER,MEAN_ANOMALY,BSTAR,MEAN_MOTION_DOT,MEAN_MOTION_DDOT,TLE_LINE0,TLE_LINE1,TLE_LINE2,SEMIMAJOR_AXIS,PERIOD,APOGEE,PERIGEE,DECAYED
51896.0,STARLINK-3593,PAYLOAD,2022-10-16 02:58:10,15.08835677,0.0001588,53.2182,168.2329,54.0814,306.0325,-1.3589000000000003e-05,-5.04e-06,0.0,0 STARLINK-3593,1 51896U 22022AW  22289.12373427 -.00000504  00000-0 -13589-4 0  9990,2 51896  53.2182 168.2329 0001588  54.0814 306.0325 15.08835677 36016,6917.894,95.438,540.857,538.66,0.0
51896.0,STARLINK-3593,PAYLOAD,2022-10-16 09:19:42,15.08840277,0.0001647,53.2181,167.0434,53.3289,306.7855,3.5957e-05,2.84e-06,0.0,0 STARLINK-3593,1 51896U 22022AW  22289.38869022  .00000284  00000-0  35957-4 0  9995,2 51896  53.2181 167.0434 0001647  53.3289 306.7855 15.08840277 36054,6917.88,95.438,540.884,538.605,0.0
51896.0,STARLINK-3593,PAYLOAD,2022-10-16 20:27:25,15.0883145,0.0001668,53.218,164.96200000000005,55.0284,305.0865,1.6657e-06,-2.62e-06,0.0,0 STARLINK-3593,1 51896U 22022AW  22289.85237823 -.00000262  00000-0  16657-5 0  9999,2 51896  53.2180 164.9620 0001668  55.0284 305.0865 15.08831450 36127,6917.906999999997,95.438,540.925,538.618,0.0
51896.0,STARLINK-3593,PAYLOAD,2022-10-17 01:13:34,15.08833343,0.0001658,53.2181,164.0699,53.0713,307.0431,5.112e-05,5.25e-06,0.0,0 STARLINK-3593,1 51896U 22022AW  22290.05109614  .00000525  00000-0  51120-4 0  9993,2 51896  53.2181 164.0699 0001658  53.0713 307.0431 15.08833343 36156,6917.901,95.438,540.913,538.619,0.0
51896.0,STARLINK-3593,PAYLOAD,2022-10-17 18:42:49,15.08834368,0.0001737,53.2182,160.7992,55.7399,304.3757,0.00010269,1.346e-05,0.0,0 STARLINK-3593,1 51896U 22022AW  22290.77973494  .00001346  00000-0  10269-3 0  9997,2 51896  53.2182 160.7992 0001737  55.7399 304.3757 15.08834368 36264,6917.898,95.438,540.964,538.561,0.0
51896.0,STARLINK-3593,PAYLOAD,2022-10-18 01:04:21,15.08834666,0.0001784,53.218,159.6099,55.7476,304.3684,9.9795e-05,1.3e-05,0.0,0 STARLINK-3593,1 51896U 22022AW  22291.04469605  .00001300  00000-0  99795-4 0  9994,2 51896  53.2180 159.6099 0001784  55.7476 304.3684 15.08834666 36300,6917.897,95.438,540.996,538.528,0.0
51896.0,STARLINK-3593,PAYLOAD,2022-10-18 15:22:50,15.08834148,0.0001813,53.2181,156.9336,56.4261,303.6904,5.1279e-06,-2.07e-06,0.0,0 STARLINK-3593,1 51896U 22022AW  22291.64086124 -.00000207  00000-0  51279-5 0  9993,2 51896  53.2181 156.9336 0001813  56.4261 303.6904 15.08834148 36399,6917.898,95.438,541.0169999999998,538.509,0.0
51896.0,STARLINK-3593,PAYLOAD,2022-10-19 00:55:09,15.08834177,0.0001801,53.2178,155.1491,53.9924,306.1235,4.7833e-05,4.73e-06,0.0,0 STARLINK-3593,1 51896U 22022AW  22292.03830171  .00000473  00000-0  47833-4 0  9990,2 51896  53.2178 155.1491 0001801  53.9924 306.1235 15.08834177 36457,6917.898,95.438,541.009,538.5169999999998,0.0
51896.0,STARLINK-3593,PAYLOAD,2022-10-19 16:49:00,15.08839892,0.0001896,53.2177,152.17600000000004,55.6645,304.4526,6.2932e-05,7.14e-06,0.0,0 STARLINK-3593,1 51896U 22022AW  22292.70069851  .00000714  00000-0  62932-4 0  9998,2 51896  53.2177 152.1760 0001896  55.6645 304.4526 15.08839892 36559,6917.880999999999,95.438,541.057,538.434,0.0
51896.0,STARLINK-3593,PAYLOAD,2022-10-20 07:07:28,15.08834878,0.0001567,53.2173,149.4985,56.7384,303.3758,5.9339e-05,6.56e-06,0.0,0 STARLINK-3593,1 51896U 22022AW  22293.29686233  .00000656  00000-0  59339-4 0  9994,2 51896  53.2173 149.4985 0001567  56.7384 303.3758 15.08834878 36644,6917.896,95.438,540.845,538.677,0.0
51896.0,STARLINK-3593,PAYLOAD,2022-10-20 21:25:56,15.08841101,0.0001557,53.2167,146.8224,49.6471,310.4657,6.8205e-05,7.98e-06,0.0,0 STARLINK-3593,1 51896U 22022AW  22293.89301854  .00000798  00000-0  68205-4 0  9992,2 51896  53.2167 146.8224 0001557  49.6471 310.4657 15.08841101 36735,6917.877,95.437,540.819,538.665,0.0
51896.0,STARLINK-3593,PAYLOAD,2022-10-21 00:36:43,15.08838511,0.0001495,53.2172,146.2271,46.4507,313.6609,3.3263e-05,2.41e-06,0.0,0 STARLINK-3593,1 51896U 22022AW  22294.02550098  .00000241  00000-0  33263-4 0  9993,2 51896  53.2172 146.2271 0001495  46.4507 313.6609 15.08838511 36758,6917.885,95.438,540.784,538.716,0.0
51896.0,STARLINK-3593,PAYLOAD,2022-10-21 16:30:35,15.08830482,0.0001683,53.2163,143.2543,48.8446,311.2691,1.4099000000000008e-05,-6.4e-07,0.0,0 STARLINK-3593,1 51896U 22022AW  22294.68790855 -.00000064  00000-0  14099-4 0  9992,2 51896  53.2163 143.2543 0001683  48.8446 311.2691 15.08830482 36859,6917.909000000002,95.438,540.939,538.61,0.0
51896.0,STARLINK-3593,PAYLOAD,2022-10-22 00:27:30,15.08837112,0.000178,53.2166,141.768,52.1247,307.9906,7.3489e-05,8.82e-06,0.0,0 STARLINK-3593,1 51896U 22022AW  22295.01910371  .00000882  00000-0  73489-4 0  9992,2 51896  53.2166 141.7680 0001780  52.1247 307.9906 15.08837112 36906,6917.889,95.438,540.986,538.523,0.0
51896.0,STARLINK-3593,PAYLOAD,2022-10-22 06:49:03,15.08815004,0.000196,53.2167,140.5786,53.9637,306.1536,0.00040745,6.198e-05,0.0,0 STARLINK-3593,1 51896U 22022AW  22295.28406772  .00006198  00000-0  40745-3 0  9990,2 51896  53.2167 140.5786 0001960  53.9637 306.1536 15.08815004 36943,6917.956999999999,95.439,541.178,538.466,0.0
51896.0,STARLINK-3593,PAYLOAD,2022-10-22 19:32:08,15.08836862,0.0001647,53.2177,138.1985,50.4893,309.6244,7.7928e-05,9.52e-06,0.0,0 STARLINK-3593,1 51896U 22022AW  22295.81398207  .00000952  00000-0  77928-4 0  9998,2 51896  53.2177 138.1985 0001647  50.4893 309.6244 15.08836862 37025,6917.89,95.438,540.894,538.616,0.0
51896.0,STARLINK-3593,PAYLOAD,2022-10-23 06:39:49,15.0886238,0.000146,53.2177,136.1179,51.3453,308.7669,-0.00027408,-4.650000000000001e-05,0.0,0 STARLINK-3593,1 51896U 22022AW  22296.27765668 -.00004650  00000-0 -27408-3 0  9996,2 51896  53.2177 136.1179 0001460  51.3453 308.7669 15.08862380 37095,6917.812,95.436,540.687,538.6669999999998,0.0
51896.0,STARLINK-3593,PAYLOAD,2022-10-23 19:22:54,15.08876785,0.0001303,53.2181,133.7389,51.2911,308.8198,-0.00036818,-6.149e-05,0.0,0 STARLINK-3593,1 51896U 22022AW  22296.80757435 -.00006149  00000-0 -36818-3 0  9998,2 51896  53.2181 133.7389 0001303  51.2911 308.8198 15.08876785 37171,6917.768,95.435,540.534,538.732,0.0
51896.0,STARLINK-3593,PAYLOAD,2022-10-24 12:52:08,15.0884707,0.0001743,53.2178,130.468,53.2667,306.8485,3.5172e-05,2.72e-06,0.0,0 STARLINK-3593,1 51896U 22022AW  22297.53621526  .00000272  00000-0  35172-4 0  9992,2 51896  53.2178 130.4680 0001743  53.2667 306.8485 15.08847070 37287,6917.859,95.437,540.93,538.518,0.0
51896.0,STARLINK-3593,PAYLOAD,2022-10-24 19:13:42,15.08844344,0.0001883,53.2183,129.2789,52.8827,307.2337,-0.00036328,-6.066e-05,0.0,0 STARLINK-3593,1 51896U 22022AW  22297.80118965 -.00006066  00000-0 -36328-3 0  9992,2 51896  53.2183 129.2789 0001883  52.8827 307.2337 15.08844344 37324,6917.8669999999975,95.437,541.035,538.429,0.0
51896.0,STARLINK-3593,PAYLOAD,2022-10-24 23:59:53,15.08819995,0.0001672,53.2182,128.3865,53.3066,306.8079,-9.6735e-05,-1.826e-05,0.0,0 STARLINK-3593,1 51896U 22022AW  22297.99991993 -.00001826  00000-0 -96735-4 0  9990,2 51896  53.2182 128.3865 0001672  53.3066 306.8079 15.08819995 37350,6917.941999999999,95.439,540.9630000000002,538.65,0.0
51896.0,STARLINK-3593,PAYLOAD,2022-10-25 06:21:25,15.08823464,0.0001674,53.2183,127.197,53.625,306.4897,-8.1031e-05,-1.577e-05,0.0,0 STARLINK-3593,1 51896U 22022AW  22298.26487961 -.00001577  00000-0 -81031-4 0  9992,2 51896  53.2183 127.1970 0001674  53.6250 306.4897 15.08823464 37399,6917.931,95.439,540.9540000000002,538.638,0.0
51896.0,STARLINK-3593,PAYLOAD,2022-10-25 19:04:30,15.08828626,0.000166,53.2181,124.8181,52.9661,307.1483,-0.00010407,-1.943e-05,0.0,0 STARLINK-3593,1 51896U 22022AW  22298.79480140 -.00001943  00000-0 -10407-3 0  9997,2 51896  53.2181 124.8181 0001660  52.9661 307.1483 15.08828626 37471,6917.915,95.438,540.929,538.632,0.0
51896.0,STARLINK-3593,PAYLOAD,2022-10-26 12:33:45,15.08821714,0.0001623,53.2179,121.548,49.2586,310.8547,4.5908e-05,4.42e-06,0.0,0 STARLINK-3593,1 51896U 22022AW  22299.52344588  .00000442  00000-0  45908-4 0  9990,2 51896  53.2179 121.5480 0001623  49.2586 310.8547 15.08821714 37583,6917.936,95.439,540.924,538.679,0.0
51896.0,STARLINK-3593,PAYLOAD,2022-10-26 18:55:18,15.08824482,0.0001646,53.2179,120.3586,48.3613,311.752,6.793600000000001e-05,7.93e-06,0.0,0 STARLINK-3593,1 51896U 22022AW  22299.78840653  .00000793  00000-0  67936-4 0  9996,2 51896  53.2179 120.3586 0001646  48.3613 311.7520 15.08824482 37624,6917.928000000001,95.439,540.932,538.654,0.0
51896.0,STARLINK-3593,PAYLOAD,2022-10-26 22:06:04,15.088228,0.0001659,53.2179,119.764,48.0989,312.0144,0.00011329,1.515e-05,0.0,0 STARLINK-3593,1 51896U 22022AW  22299.92088747  .00001515  00000-0  11329-3 0  9997,2 51896  53.2179 119.7640 0001659  48.0989 312.0144 15.08822800 37644,6917.933000000001,95.439,540.946,538.65,0.0
51896.0,STARLINK-3593,PAYLOAD,2022-10-27 18:46:05,15.08832712,0.0001679,53.2183,115.8985,49.3857,310.7281,0.00013235,1.819e-05,0.0,0 STARLINK-3593,1 51896U 22022AW  22300.78200830  .00001819  00000-0  13235-3 0  9998,2 51896  53.2183 115.8985 0001679  49.3857 310.7281 15.08832712 37772,6917.903,95.438,540.929,538.606,0.0
51896.0,STARLINK-3593,PAYLOAD,2022-10-27 21:56:51,15.0883562,0.0001696,53.2183,115.3036,49.6604,310.4536,0.00013831,1.914e-05,0.0,0 STARLINK-3593,1 51896U 22022AW  22300.91448688  .00001914  00000-0  13831-3 0  9996,2 51896  53.2183 115.3036 0001696  49.6604 310.4536 15.08835620 37799,6917.894,95.438,540.932,538.586,0.0
51896.0,STARLINK-3593,PAYLOAD,2022-10-28 18:36:51,15.08848539,0.0001725,53.2189,111.4385,52.5304,307.5845,0.00015311,2.15e-05,0.0,0 STARLINK-3593,1 51896U 22022AW  22301.77559895  .00002150  00000-0  15311-3 0  9992,2 51896  53.2189 111.4385 0001725  52.5304 307.5845 15.08848539 37920,6917.854,95.437,540.913,538.526,0.0
